start=new Date('2022-12-15T00:00:00.000Z').valueOf();
sats=[{"FILE":"3699647","TLE_LINE2":"2 44723  53.0547  87.8046 0001674  59.1592 300.9561 15.06390435170769","TLE_LINE1":"1 44723U 19074L   22348.80740390 -.00000411  00000-0 -87182-5 0  9990","APOAPSIS":"548.402","MEAN_ELEMENT_THEORY":"SGP4","ELEMENT_SET_NO":"999","REF_FRAME":"TEME","CLASSIFICATION_TYPE":"U","TIME_SYSTEM":"UTC","ECCENTRICITY":"0.00016740","MEAN_MOTION_DOT":"-0.00000411","RCS_SIZE":"LARGE","EPHEMERIS_TYPE":"0","EPOCH":"2022-12-14T19:22:39.696960","NORAD_CAT_ID":"44723","MEAN_MOTION_DDOT":"0.0000000000000","PERIOD":"95.593","SITE":"AFETR","CENTER_NAME":"EARTH","RA_OF_ASC_NODE":"87.8046","OBJECT_TYPE":"PAYLOAD","MEAN_ANOMALY":"300.9561","OBJECT_NAME":"STARLINK-1017","LAUNCH_DATE":"2019-11-11","OBJECT_ID":"2019-074L","REV_AT_EPOCH":"17076","BSTAR":"-0.00000871820000","ARG_OF_PERICENTER":"59.1592","MEAN_MOTION":"15.06390435","INCLINATION":"53.0547","PERIAPSIS":"546.084","GP_ID":"220405646","SEMIMAJOR_AXIS":"6925.378","COUNTRY_CODE":"US","DECAY_DATE":null},{"TLE_LINE1":"1 44724U 19074M   22348.70419193  .00000399  00000-0  45689-4 0  9992","APOAPSIS":"548.354","MEAN_ELEMENT_THEORY":"SGP4","FILE":"3699647","TLE_LINE2":"2 44724  53.0527  88.2734 0001633  56.9247 303.1899 15.06396887170748","ELEMENT_SET_NO":"999","ECCENTRICITY":"0.00016330","RCS_SIZE":"LARGE","MEAN_MOTION_DOT":"0.00000399","CLASSIFICATION_TYPE":"U","REF_FRAME":"TEME","TIME_SYSTEM":"UTC","EPOCH":"2022-12-14T16:54:02.182752","EPHEMERIS_TYPE":"0","PERIOD":"95.592","MEAN_MOTION_DDOT":"0.0000000000000","NORAD_CAT_ID":"44724","CENTER_NAME":"EARTH","RA_OF_ASC_NODE":"88.2734","SITE":"AFETR","OBJECT_TYPE":"PAYLOAD","REV_AT_EPOCH":"17074","ARG_OF_PERICENTER":"56.9247","MEAN_MOTION":"15.06396887","BSTAR":"0.00004568900000","MEAN_ANOMALY":"303.1899","OBJECT_NAME":"STARLINK-1019","OBJECT_ID":"2019-074M","LAUNCH_DATE":"2019-11-11","GP_ID":"220405892","COUNTRY_CODE":"US","DECAY_DATE":null,"SEMIMAJOR_AXIS":"6925.358","INCLINATION":"53.0527","PERIAPSIS":"546.092"},{"LAUNCH_DATE":"2019-11-11","OBJECT_ID":"2019-074N","MEAN_ANOMALY":"302.6612","OBJECT_NAME":"STARLINK-1020","BSTAR":"0.00013043000000","MEAN_MOTION":"15.06398850","ARG_OF_PERICENTER":"57.4509","REV_AT_EPOCH":"17045","PERIAPSIS":"546.268","INCLINATION":"53.0560","SEMIMAJOR_AXIS":"6925.352","DECAY_DATE":null,"COUNTRY_CODE":"US","GP_ID":"220406643","NORAD_CAT_ID":"44725","PERIOD":"95.592","MEAN_MOTION_DDOT":"0.0000000000000","OBJECT_TYPE":"PAYLOAD","SITE":"AFETR","RA_OF_ASC_NODE":"108.5529","CENTER_NAME":"EARTH","TIME_SYSTEM":"UTC","REF_FRAME":"TEME","CLASSIFICATION_TYPE":"U","MEAN_MOTION_DOT":"0.00001662","RCS_SIZE":"LARGE","ECCENTRICITY":"0.00013710","EPHEMERIS_TYPE":"0","EPOCH":"2022-12-14T15:26:27.611232","TLE_LINE2":"2 44725  53.0560 108.5529 0001371  57.4509 302.6612 15.06398850170457","FILE":"3699647","MEAN_ELEMENT_THEORY":"SGP4","APOAPSIS":"548.167","TLE_LINE1":"1 44725U 19074N   22348.64337513  .00001662  00000-0  13043-3 0  9993","ELEMENT_SET_NO":"999"},{"EPHEMERIS_TYPE":"0","EPOCH":"2022-12-14T16:48:43.460928","MEAN_MOTION_DOT":"0.00001509","RCS_SIZE":"LARGE","ECCENTRICITY":"0.00014130","TIME_SYSTEM":"UTC","REF_FRAME":"TEME","CLASSIFICATION_TYPE":"U","ELEMENT_SET_NO":"999","APOAPSIS":"548.188","MEAN_ELEMENT_THEORY":"SGP4","TLE_LINE1":"1 44726U 19074P   22348.70050302  .00001509  00000-0  12019-3 0  9991","FILE":"3699647","TLE_LINE2":"2 44726  53.0541  88.2761 0001413  54.3597 305.7524 15.06401400170743","SEMIMAJOR_AXIS":"6925.344","COUNTRY_CODE":"US","DECAY_DATE":null,"GP_ID":"220406388","INCLINATION":"53.0541","PERIAPSIS":"546.231","BSTAR":"0.00012019000000","MEAN_MOTION":"15.06401400","ARG_OF_PERICENTER":"54.3597","REV_AT_EPOCH":"17074","LAUNCH_DATE":"2019-11-11","OBJECT_ID":"2019-074P","OBJECT_NAME":"STARLINK-1021","MEAN_ANOMALY":"305.7524","OBJECT_TYPE":"PAYLOAD","SITE":"AFETR","RA_OF_ASC_NODE":"88.2761","CENTER_NAME":"EARTH","NORAD_CAT_ID":"44726","PERIOD":"95.592","MEAN_MOTION_DDOT":"0.0000000000000"},{"ELEMENT_SET_NO":"999","TLE_LINE1":"1 44727U 19074Q   22348.86910872 -.00000028  00000-0  17033-4 0  9994","APOAPSIS":"548.212","MEAN_ELEMENT_THEORY":"SGP4","TLE_LINE2":"2 44727  53.0538 127.5368 0001441  67.9381 292.1761 15.06399838170228","FILE":"3699647","EPHEMERIS_TYPE":"0","EPOCH":"2022-12-14T20:51:30.993408","ECCENTRICITY":"0.00014410","MEAN_MOTION_DOT":"-0.00000028","RCS_SIZE":"LARGE","REF_FRAME":"TEME","CLASSIFICATION_TYPE":"U","TIME_SYSTEM":"UTC","SITE":"AFETR","CENTER_NAME":"EARTH","RA_OF_ASC_NODE":"127.5368","OBJECT_TYPE":"PAYLOAD","NORAD_CAT_ID":"44727","MEAN_MOTION_DDOT":"0.0000000000000","PERIOD":"95.592","GP_ID":"220405147","SEMIMAJOR_AXIS":"6925.349","COUNTRY_CODE":"US","DECAY_DATE":null,"INCLINATION":"53.0538","PERIAPSIS":"546.216","REV_AT_EPOCH":"17022","BSTAR":"0.00001703300000","MEAN_MOTION":"15.06399838","ARG_OF_PERICENTER":"67.9381","OBJECT_NAME":"STARLINK-1022","MEAN_ANOMALY":"292.1761","OBJECT_ID":"2019-074Q","LAUNCH_DATE":"2019-11-11"},{"COUNTRY_CODE":"US","DECAY_DATE":null,"SEMIMAJOR_AXIS":"6880.280","GP_ID":"220405393","INCLINATION":"53.0047","PERIAPSIS":"501.307","ARG_OF_PERICENTER":"224.9141","MEAN_MOTION":"15.21225569","BSTAR":"0.00161740000000","REV_AT_EPOCH":"17074","OBJECT_ID":"2019-074S","LAUNCH_DATE":"2019-11-11","OBJECT_NAME":"STARLINK-1024","MEAN_ANOMALY":"135.1756","OBJECT_TYPE":"PAYLOAD","RA_OF_ASC_NODE":"84.3017","CENTER_NAME":"EARTH","SITE":"AFETR","MEAN_MOTION_DDOT":"0.0000000000000","PERIOD":"94.661","NORAD_CAT_ID":"44729","EPOCH":"2022-12-14T13:11:53.882016","EPHEMERIS_TYPE":"0","RCS_SIZE":"LARGE","MEAN_MOTION_DOT":"0.00036418","ECCENTRICITY":"0.00012170","TIME_SYSTEM":"UTC","CLASSIFICATION_TYPE":"U","REF_FRAME":"TEME","ELEMENT_SET_NO":"999","MEAN_ELEMENT_THEORY":"SGP4","APOAPSIS":"502.982","TLE_LINE1":"1 44729U 19074S   22348.54992919  .00036418  00000-0  16174-2 0  9997","FILE":"3699647","TLE_LINE2":"2 44729  53.0047  84.3017 0001217 224.9141 135.1756 15.21225569170749"},{"PERIAPSIS":"546.042","INCLINATION":"53.0543","GP_ID":"220406143","DECAY_DATE":null,"COUNTRY_CODE":"US","SEMIMAJOR_AXIS":"6925.371","OBJECT_NAME":"STARLINK-1026","MEAN_ANOMALY":"309.6881","LAUNCH_DATE":"2019-11-11","OBJECT_ID":"2019-074U","REV_AT_EPOCH":"17075","MEAN_MOTION":"15.06392602","ARG_OF_PERICENTER":"50.4260","BSTAR":"-0.00003999200000","CENTER_NAME":"EARTH","RA_OF_ASC_NODE":"87.9461","SITE":"AFETR","OBJECT_TYPE":"PAYLOAD","MEAN_MOTION_DDOT":"0.0000000000000","PERIOD":"95.593","NORAD_CAT_ID":"44731","EPOCH":"2022-12-14T18:40:12.060768","EPHEMERIS_TYPE":"0","CLASSIFICATION_TYPE":"U","REF_FRAME":"TEME","TIME_SYSTEM":"UTC","ECCENTRICITY":"0.00017250","RCS_SIZE":"LARGE","MEAN_MOTION_DOT":"-0.00000877","ELEMENT_SET_NO":"999","FILE":"3699647","TLE_LINE2":"2 44731  53.0543  87.9461 0001725  50.4260 309.6881 15.06392602170757","TLE_LINE1":"1 44731U 19074U   22348.77791737 -.00000877  00000-0 -39992-4 0  9997","MEAN_ELEMENT_THEORY":"SGP4","APOAPSIS":"548.431"},{"INCLINATION":"53.0568","PERIAPSIS":"546.202","SEMIMAJOR_AXIS":"6925.341","DECAY_DATE":null,"COUNTRY_CODE":"US","GP_ID":"220406888","LAUNCH_DATE":"2019-11-11","OBJECT_ID":"2019-074V","MEAN_ANOMALY":"302.8452","OBJECT_NAME":"STARLINK-1027","BSTAR":"-0.00026705000000","MEAN_MOTION":"15.06402502","ARG_OF_PERICENTER":"57.2676","REV_AT_EPOCH":"17045","OBJECT_TYPE":"PAYLOAD","SITE":"AFETR","CENTER_NAME":"EARTH","RA_OF_ASC_NODE":"108.5994","NORAD_CAT_ID":"44732","MEAN_MOTION_DDOT":"0.0000000000000","PERIOD":"95.592","EPHEMERIS_TYPE":"0","EPOCH":"2022-12-14T15:10:32.289888","TIME_SYSTEM":"UTC","REF_FRAME":"TEME","CLASSIFICATION_TYPE":"U","MEAN_MOTION_DOT":"-0.00004257","RCS_SIZE":"LARGE","ECCENTRICITY":"0.00014490","ELEMENT_SET_NO":"999","TLE_LINE2":"2 44732  53.0568 108.5994 0001449  57.2676 302.8452 15.06402502170452","FILE":"3699647","MEAN_ELEMENT_THEORY":"SGP4","APOAPSIS":"548.209","TLE_LINE1":"1 44732U 19074V   22348.63231817 -.00004257  00000-0 -26705-3 0  9994"},{"OBJECT_TYPE":"PAYLOAD","CENTER_NAME":"EARTH","RA_OF_ASC_NODE":"88.8896","SITE":"AFETR","MEAN_MOTION_DDOT":"0.0000000000000","PERIOD":"95.591","NORAD_CAT_ID":"44733","INCLINATION":"53.0540","PERIAPSIS":"546.156","COUNTRY_CODE":"US","DECAY_DATE":null,"SEMIMAJOR_AXIS":"6925.289","GP_ID":"220372747","OBJECT_ID":"2019-074W","LAUNCH_DATE":"2019-11-11","OBJECT_NAME":"STARLINK-1028","MEAN_ANOMALY":"294.5774","MEAN_MOTION":"15.06419561","ARG_OF_PERICENTER":"65.5365","BSTAR":"0.00059056000000","REV_AT_EPOCH":"17089","ELEMENT_SET_NO":"999","TLE_LINE2":"2 44733  53.0540  88.8896 0001441  65.5365 294.5774 15.06419561170898","FILE":"3699068","APOAPSIS":"548.152","MEAN_ELEMENT_THEORY":"SGP4","TLE_LINE1":"1 44733U 19074W   22348.56411960  .00008530  00000-0  59056-3 0  9997","EPOCH":"2022-12-14T13:32:19.933440","EPHEMERIS_TYPE":"0","TIME_SYSTEM":"UTC","CLASSIFICATION_TYPE":"U","REF_FRAME":"TEME","RCS_SIZE":"LARGE","MEAN_MOTION_DOT":"0.00008530","ECCENTRICITY":"0.00014410"},{"MEAN_ELEMENT_THEORY":"SGP4","APOAPSIS":"548.628","TLE_LINE1":"1 44734U 19074X   22348.44618230  .00000573  00000-0  57415-4 0  9991","FILE":"3699054","TLE_LINE2":"2 44734  53.0551   9.4301 0002022  48.5401 311.5762 15.06395261171976","ELEMENT_SET_NO":"999","RCS_SIZE":"LARGE","MEAN_MOTION_DOT":"0.00000573","ECCENTRICITY":"0.00020220","TIME_SYSTEM":"UTC","CLASSIFICATION_TYPE":"U","REF_FRAME":"TEME","EPOCH":"2022-12-14T10:42:30.150720","EPHEMERIS_TYPE":"0","PERIOD":"95.592","MEAN_MOTION_DDOT":"0.0000000000000","NORAD_CAT_ID":"44734","OBJECT_TYPE":"PAYLOAD","RA_OF_ASC_NODE":"9.4301","CENTER_NAME":"EARTH","SITE":"AFETR","MEAN_MOTION":"15.06395261","ARG_OF_PERICENTER":"48.5401","BSTAR":"0.00005741500000","REV_AT_EPOCH":"17197","LAUNCH_DATE":"2019-11-11","OBJECT_ID":"2019-074X","OBJECT_NAME":"STARLINK-1029","MEAN_ANOMALY":"311.5762","COUNTRY_CODE":"US","DECAY_DATE":null,"SEMIMAJOR_AXIS":"6925.363","GP_ID":"220372749","INCLINATION":"53.0551","PERIAPSIS":"545.828"}];
